{
"type": "FeatureCollection",
"name": "delft_50",
"crs": { "type": "name", "properties": { "name": "urn:ogc:def:crs:EPSG::28992" } },
"features": [
{ "type": "Feature", "properties": { "identificatie": "0503100000004164" }, "geometry": { "type": "Polygon", "coordinates": [ [ [ 85338.096999999994296, 445258.490999999979977 ], [ 85340.501999999993131, 445251.98499999998603 ], [ 85341.804999999993015, 445248.460000000020955 ], [ 85342.979000000006636, 445248.887999999977183 ], [ 85344.304999999993015, 445245.253000000026077 ], [ 85348.679999999993015, 445246.838999999978114 ], [ 85351.187999999994645, 445239.941 ], [ 85365.804999999993015, 445245.255 ], [ 85365.767000000007101, 445245.358 ], [ 85362.695000000006985, 445253.73499999998603 ], [ 85355.489000000001397, 445273.38 ], [ 85335.354999999995925, 445266.038 ], [ 85338.096999999994296, 445258.490999999979977 ] ] ] } },
{ "type": "Feature", "properties": { "identificatie": "0503100000017905" }, "geometry": { "type": "Polygon", "coordinates": [ [ [ 85331.785000000003492, 445241.444000000017695 ], [ 85334.563999999998487, 445233.909999999974389 ], [ 85340.082999999998719, 445235.912000000011176 ], [ 85337.285000000003492, 445243.44 ], [ 85331.785000000003492, 445241.444000000017695 ] ] ] } },
{ "type": "Feature", "properties": { "identificatie": "0503100000018013" }, "geometry": { "type": "Polygon", "coordinates": [ [ [ 85329.751999999993131, 445264.00199999997858 ], [ 85332.498000000006869, 445256.456 ], [ 85338.096999999994296, 445258.490999999979977 ], [ 85335.354999999995925, 445266.038 ], [ 85329.751999999993131, 445264.00199999997858 ] ] ] } },
{ "type": "Feature", "properties": { "identificatie": "0503100000018021" }, "geometry": { "type": "Polygon", "coordinates": [ [ [ 85324.260999999998603, 445262.006999999983236 ], [ 85327.010999999998603, 445254.462 ], [ 85332.498000000006869, 445256.456 ], [ 85329.751999999993131, 445264.00199999997858 ], [ 85324.260999999998603, 445262.006999999983236 ] ] ] } },
{ "type": "Feature", "properties": { "identificatie": "0503100000018648" }, "geometry": { "type": "Polygon", "coordinates": [ [ [ 85354.303, 445222.908999999985099 ], [ 85357.092999999993481, 445223.93 ], [ 85354.627999999996973, 445230.663 ], [ 85354.597999999998137, 445230.746999999973923 ], [ 85351.785000000003492, 445229.71999999997206 ], [ 85354.292000000001281, 445222.811999999976251 ], [ 85354.332999999998719, 445222.827 ], [ 85354.303, 445222.908999999985099 ] ] ] } },
{ "type": "Feature", "properties": { "identificatie": "0503100000017912" }, "geometry": { "type": "Polygon", "coordinates": [ [ [ 85326.281000000002678, 445239.447999999974854 ], [ 85329.085000000006403, 445231.923 ], [ 85334.563999999998487, 445233.909999999974389 ], [ 85331.785000000003492, 445241.444000000017695 ], [ 85326.281000000002678, 445239.447999999974854 ] ] ] } },
{ "type": "Feature", "properties": { "identificatie": "0503100000018649" }, "geometry": { "type": "Polygon", "coordinates": [ [ [ 85357.119999999995343, 445231.668 ], [ 85357.153000000005704, 445231.576 ], [ 85358.072, 445229.037000000011176 ], [ 85360.709000000002561, 445229.992000000027474 ], [ 85362.262000000002445, 445225.724999999976717 ], [ 85362.270000000004075, 445225.728 ], [ 85371.686000000001513, 445229.142999999981839 ], [ 85371.475999999995111, 445229.697999999974854 ], [ 85371.589000000007218, 445230.56 ], [ 85371.085000000006403, 445231.946 ], [ 85370.448000000003958, 445232.538 ], [ 85369.531000000002678, 445234.996999999973923 ], [ 85363.956999999994878, 445232.987000000022817 ], [ 85363.577000000004773, 445233.974999999976717 ], [ 85363.559999999997672, 445234.018999999971129 ], [ 85362.395999999993364, 445233.593999999982771 ], [ 85359.751999999993131, 445232.62300000002142 ], [ 85357.957999999998719, 445231.973999999987427 ], [ 85357.119999999995343, 445231.668 ] ] ] } },
{ "type": "Feature", "properties": { "identificatie": "0503100000004162" }, "geometry": { "type": "Polygon", "coordinates": [ [ [ 85348.966, 445228.696999999985565 ], [ 85351.706000000005588, 445221.148999999975786 ], [ 85352.705000000001746, 445218.395000000018626 ], [ 85355.55800000000454, 445219.481000000028871 ], [ 85354.332999999998719, 445222.827 ], [ 85354.292000000001281, 445222.811999999976251 ], [ 85351.785000000003492, 445229.71999999997206 ], [ 85348.966, 445228.696999999985565 ] ] ] } },
{ "type": "Feature", "properties": { "identificatie": "0503100000004167" }, "geometry": { "type": "Polygon", "coordinates": [ [ [ 85343.361000000004424, 445226.663 ], [ 85346.10899999999674, 445219.118000000016764 ], [ 85351.706000000005588, 445221.148999999975786 ], [ 85348.966, 445228.696999999985565 ], [ 85343.361000000004424, 445226.663 ] ] ] } },
{ "type": "Feature", "properties": { "identificatie": "0503100000018023" }, "geometry": { "type": "Polygon", "coordinates": [ [ [ 85318.799, 445260.022 ], [ 85321.51600000000326, 445252.465000000025611 ], [ 85327.010999999998603, 445254.462 ], [ 85324.260999999998603, 445262.006999999983236 ], [ 85318.799, 445260.022 ] ] ] } },
{ "type": "Feature", "properties": { "identificatie": "0503100000017916" }, "geometry": { "type": "Polygon", "coordinates": [ [ [ 85320.81699999999546, 445237.466000000014901 ], [ 85323.625, 445229.941999999980908 ], [ 85329.085000000006403, 445231.923 ], [ 85326.281000000002678, 445239.447999999974854 ], [ 85320.81699999999546, 445237.466000000014901 ] ] ] } },
{ "type": "Feature", "properties": { "identificatie": "0503100000017909" }, "geometry": { "type": "Polygon", "coordinates": [ [ [ 85343.361000000004424, 445226.663 ], [ 85337.887000000002445, 445224.675999999977648 ], [ 85341.674, 445214.316999999980908 ], [ 85344.581999999994878, 445215.371999999973923 ], [ 85343.55800000000454, 445218.191999999980908 ], [ 85346.10899999999674, 445219.118000000016764 ], [ 85343.361000000004424, 445226.663 ] ] ] } },
{ "type": "Feature", "properties": { "identificatie": "0503100000018647" }, "geometry": { "type": "Polygon", "coordinates": [ [ [ 85368.247000000003027, 445221.25199999997858 ], [ 85373.820999999996275, 445223.273999999975786 ], [ 85372.936000000001513, 445225.756999999983236 ], [ 85373.044999999998254, 445226.625 ], [ 85372.539000000004307, 445227.989 ], [ 85371.906000000002678, 445228.560999999986961 ], [ 85371.686000000001513, 445229.142999999981839 ], [ 85362.270000000004075, 445225.728 ], [ 85362.262000000002445, 445225.724999999976717 ], [ 85363.792000000001281, 445221.522 ], [ 85364.657000000006519, 445219.143999999971129 ], [ 85364.790999999997439, 445218.822999999974854 ], [ 85368.630999999993946, 445220.191999999980908 ], [ 85368.247000000003027, 445221.25199999997858 ] ] ] } },
{ "type": "Feature", "properties": { "identificatie": "0503100000017917" }, "geometry": { "type": "Polygon", "coordinates": [ [ [ 85337.887000000002445, 445224.675999999977648 ], [ 85332.413, 445222.689000000013039 ], [ 85335.149999999994179, 445215.14000000001397 ], [ 85336.172000000005937, 445212.32 ], [ 85341.674, 445214.316999999980908 ], [ 85337.887000000002445, 445224.675999999977648 ] ] ] } },
{ "type": "Feature", "properties": { "identificatie": "0503100000018010" }, "geometry": { "type": "Polygon", "coordinates": [ [ [ 85320.81699999999546, 445237.466000000014901 ], [ 85319.964000000007218, 445239.816 ], [ 85317.707999999998719, 445238.996999999973923 ], [ 85318.561000000001513, 445236.647 ], [ 85315.341, 445235.479 ], [ 85318.119000000006054, 445227.944000000017695 ], [ 85323.625, 445229.941999999980908 ], [ 85320.81699999999546, 445237.466000000014901 ] ] ] } },
{ "type": "Feature", "properties": { "identificatie": "0503100000004166" }, "geometry": { "type": "Polygon", "coordinates": [ [ [ 85347.479999999995925, 445294.090000000025611 ], [ 85347.467999999993481, 445294.12300000002142 ], [ 85338.987999999997555, 445291.137999999977183 ], [ 85339.020000000004075, 445291.047000000020489 ], [ 85343.149999999994179, 445279.226000000024214 ], [ 85343.157000000006519, 445279.228 ], [ 85343.313999999998487, 445278.788999999989755 ], [ 85346.285000000003492, 445279.788 ], [ 85346.384000000005472, 445279.51 ], [ 85352.236000000004424, 445281.587 ], [ 85348.99199999999837, 445290.727000000013504 ], [ 85348.709000000002561, 445290.62699999997858 ], [ 85347.479999999995925, 445294.090000000025611 ] ] ] } },
{ "type": "Feature", "properties": { "identificatie": "0503100000018020" }, "geometry": { "type": "Polygon", "coordinates": [ [ [ 85329.126999999993131, 445282.739 ], [ 85327.600000000005821, 445286.78000000002794 ], [ 85326.796000000002095, 445286.471000000019558 ], [ 85324.686000000001513, 445285.721000000019558 ], [ 85326.212, 445281.681999999971595 ], [ 85323.570999999996275, 445280.724999999976717 ], [ 85326.394, 445273.199000000022352 ], [ 85331.967999999993481, 445275.221000000019558 ], [ 85331.93300000000454, 445275.315 ], [ 85329.126999999993131, 445282.739 ] ] ] } },
{ "type": "Feature", "properties": { "identificatie": "0503100000017913" }, "geometry": { "type": "Polygon", "coordinates": [ [ [ 85326.892999999996391, 445220.685999999986961 ], [ 85329.657000000006519, 445213.147 ], [ 85335.149999999994179, 445215.14000000001397 ], [ 85332.413, 445222.689000000013039 ], [ 85326.892999999996391, 445220.685999999986961 ] ] ] } },
{ "type": "Feature", "properties": { "identificatie": "0503100000004160" }, "geometry": { "type": "Polygon", "coordinates": [ [ [ 85307.819000000003143, 445256.031000000017229 ], [ 85310.019, 445250.0 ], [ 85310.570999999996275, 445248.488000000012107 ], [ 85316.039000000004307, 445250.474999999976717 ], [ 85313.30899999999383, 445258.026000000012573 ], [ 85307.819000000003143, 445256.031000000017229 ] ] ] } },
{ "type": "Feature", "properties": { "identificatie": "0503100000018009" }, "geometry": { "type": "Polygon", "coordinates": [ [ [ 85315.341, 445235.479 ], [ 85314.453999999997905, 445237.923 ], [ 85308.975000000005821, 445235.935 ], [ 85309.861000000004424, 445233.490999999979977 ], [ 85312.64, 445225.957 ], [ 85318.119000000006054, 445227.944000000017695 ], [ 85315.341, 445235.479 ] ] ] } },
{ "type": "Feature", "properties": { "identificatie": "0503100000018019" }, "geometry": { "type": "Polygon", "coordinates": [ [ [ 85312.581000000005588, 445276.740999999979977 ], [ 85315.422999999995227, 445269.221000000019558 ], [ 85320.884999999994761, 445271.201 ], [ 85318.070999999996275, 445278.731000000028871 ], [ 85312.581000000005588, 445276.740999999979977 ] ] ] } },
{ "type": "Feature", "properties": { "identificatie": "0503100000018011" }, "geometry": { "type": "Polygon", "coordinates": [ [ [ 85321.429000000003725, 445218.702999999979511 ], [ 85324.182, 445211.159999999974389 ], [ 85329.657000000006519, 445213.147 ], [ 85326.892999999996391, 445220.685999999986961 ], [ 85321.429000000003725, 445218.702999999979511 ] ] ] } },
{ "type": "Feature", "properties": { "identificatie": "0503100000004161" }, "geometry": { "type": "Polygon", "coordinates": [ [ [ 85302.346999999994296, 445254.043 ], [ 85303.819000000003143, 445250.0 ], [ 85305.093999999997322, 445246.49800000002142 ], [ 85310.570999999996275, 445248.488000000012107 ], [ 85310.019, 445250.0 ], [ 85307.819000000003143, 445256.031000000017229 ], [ 85302.346999999994296, 445254.043 ] ] ] } },
{ "type": "Feature", "properties": { "identificatie": "0503100000018015" }, "geometry": { "type": "Polygon", "coordinates": [ [ [ 85307.100000000005821, 445274.753000000026077 ], [ 85309.952000000004773, 445267.23599999997532 ], [ 85315.422999999995227, 445269.221000000019558 ], [ 85312.581000000005588, 445276.740999999979977 ], [ 85307.100000000005821, 445274.753000000026077 ] ] ] } },
{ "type": "Feature", "properties": { "identificatie": "0503100000017903" }, "geometry": { "type": "Polygon", "coordinates": [ [ [ 85304.384000000005472, 445231.504000000015367 ], [ 85307.160999999992782, 445223.968999999982771 ], [ 85312.64, 445225.956 ], [ 85309.861000000004424, 445233.490999999979977 ], [ 85304.384000000005472, 445231.504000000015367 ] ] ] } },
{ "type": "Feature", "properties": { "identificatie": "0503100000018018" }, "geometry": { "type": "Polygon", "coordinates": [ [ [ 85301.600000000005821, 445272.76 ], [ 85304.471999999994296, 445265.24900000001071 ], [ 85309.952000000004773, 445267.23599999997532 ], [ 85307.100000000005821, 445274.753000000026077 ], [ 85301.600000000005821, 445272.76 ] ] ] } },
{ "type": "Feature", "properties": { "identificatie": "0503100000017910" }, "geometry": { "type": "Polygon", "coordinates": [ [ [ 85315.936000000001513, 445216.708999999973457 ], [ 85310.43399999999383, 445214.712 ], [ 85313.176000000006752, 445207.164999999979045 ], [ 85316.789000000004307, 445208.478 ], [ 85317.811000000001513, 445205.656000000017229 ], [ 85319.69100000000617, 445206.337999999988824 ], [ 85318.669999999998254, 445209.158999999985099 ], [ 85315.936000000001513, 445216.708999999973457 ] ] ] } },
{ "type": "Feature", "properties": { "identificatie": "0503100000017904" }, "geometry": { "type": "Polygon", "coordinates": [ [ [ 85298.894, 445229.511999999987893 ], [ 85301.672999999995227, 445221.978 ], [ 85307.160999999992782, 445223.968999999982771 ], [ 85304.384000000005472, 445231.504000000015367 ], [ 85298.894, 445229.511999999987893 ] ] ] } },
{ "type": "Feature", "properties": { "identificatie": "0503100000018014" }, "geometry": { "type": "Polygon", "coordinates": [ [ [ 85296.119000000006054, 445270.772 ], [ 85299.001000000003842, 445263.26400000002468 ], [ 85304.471999999994296, 445265.24900000001071 ], [ 85301.600000000005821, 445272.76 ], [ 85296.119000000006054, 445270.772 ] ] ] } },
{ "type": "Feature", "properties": { "identificatie": "0503100000004923" }, "geometry": { "type": "Polygon", "coordinates": [ [ [ 85291.384999999994761, 445250.059 ], [ 85291.406000000002678, 445250.0 ], [ 85294.130999999993946, 445242.512999999977183 ], [ 85296.502999999996973, 445235.995999999984633 ], [ 85300.312999999994645, 445237.382999999972526 ], [ 85299.369999999995343, 445239.973999999987427 ], [ 85297.777000000001863, 445239.396 ], [ 85296.349000000001979, 445243.319000000017695 ], [ 85299.607999999992899, 445244.504000000015367 ], [ 85297.595000000001164, 445250.0 ], [ 85296.846999999994296, 445252.044 ], [ 85291.384999999994761, 445250.059 ] ] ] } },
{ "type": "Feature", "properties": { "identificatie": "0503100000018022" }, "geometry": { "type": "Polygon", "coordinates": [ [ [ 85290.600000000005821, 445268.772 ], [ 85293.520000000004075, 445261.277 ], [ 85299.001000000003842, 445263.26400000002468 ], [ 85296.119000000006054, 445270.772 ], [ 85290.600000000005821, 445268.772 ] ] ] } },
{ "type": "Feature", "properties": { "identificatie": "0503100000018008" }, "geometry": { "type": "Polygon", "coordinates": [ [ [ 85310.43399999999383, 445214.712 ], [ 85304.951, 445212.722 ], [ 85308.703999999997905, 445202.351000000024214 ], [ 85311.618000000002212, 445203.408 ], [ 85310.597999999998137, 445206.227000000013504 ], [ 85313.176000000006752, 445207.164999999979045 ], [ 85310.43399999999383, 445214.712 ] ] ] } },
{ "type": "Feature", "properties": { "identificatie": "0503100000017906" }, "geometry": { "type": "Polygon", "coordinates": [ [ [ 85293.407000000006519, 445227.521 ], [ 85296.194000000003143, 445219.99 ], [ 85301.672999999995227, 445221.978 ], [ 85298.894, 445229.511999999987893 ], [ 85293.407000000006519, 445227.521 ] ] ] } },
{ "type": "Feature", "properties": { "identificatie": "0503100000004998" }, "geometry": { "type": "Polygon", "coordinates": [ [ [ 85285.884999999994761, 445248.06 ], [ 85288.634999999994761, 445240.516 ], [ 85294.130999999993946, 445242.512999999977183 ], [ 85291.406000000002678, 445250.0 ], [ 85291.384999999994761, 445250.059 ], [ 85291.222999999998137, 445250.0 ], [ 85285.884999999994761, 445248.06 ] ] ] } },
{ "type": "Feature", "properties": { "identificatie": "0503100000018024" }, "geometry": { "type": "Polygon", "coordinates": [ [ [ 85285.129, 445266.788 ], [ 85288.029999999998836, 445259.286000000021886 ], [ 85293.520000000004075, 445261.277 ], [ 85290.600000000005821, 445268.772 ], [ 85285.129, 445266.788 ] ] ] } },
{ "type": "Feature", "properties": { "identificatie": "0503100000017915" }, "geometry": { "type": "Polygon", "coordinates": [ [ [ 85304.951, 445212.722 ], [ 85299.478000000002794, 445210.73599999997532 ], [ 85302.226999999998952, 445203.191999999980908 ], [ 85304.767999999996391, 445204.117000000027474 ], [ 85305.789999999993597, 445201.293 ], [ 85308.703999999997905, 445202.351000000024214 ], [ 85304.951, 445212.722 ] ] ] } },
{ "type": "Feature", "properties": { "identificatie": "0503100000017902" }, "geometry": { "type": "Polygon", "coordinates": [ [ [ 85287.774999999994179, 445225.478 ], [ 85289.900999999998021, 445219.784999999974389 ], [ 85290.584000000002561, 445217.955000000016298 ], [ 85290.649000000004889, 445217.979 ], [ 85296.194000000003143, 445219.99 ], [ 85293.407000000006519, 445227.521 ], [ 85287.774999999994179, 445225.478 ] ] ] } },
{ "type": "Feature", "properties": { "identificatie": "0503100000018017" }, "geometry": { "type": "Polygon", "coordinates": [ [ [ 85285.129, 445266.788 ], [ 85285.388999999995576, 445266.881999999983236 ], [ 85283.896999999997206, 445271.034999999974389 ], [ 85281.547000000005937, 445270.18 ], [ 85283.038, 445266.03000000002794 ], [ 85279.667000000001281, 445264.808000000019092 ], [ 85282.539999999993597, 445257.294 ], [ 85288.029999999998836, 445259.284999999974389 ], [ 85285.129, 445266.788 ] ] ] } },
{ "type": "Feature", "properties": { "identificatie": "0503100000017914" }, "geometry": { "type": "Polygon", "coordinates": [ [ [ 85299.478000000002794, 445210.73599999997532 ], [ 85293.994000000006054, 445208.745999999984633 ], [ 85293.862999999997555, 445208.697999999974854 ], [ 85296.601999999998952, 445201.150000000023283 ], [ 85297.626000000003842, 445198.330000000016298 ], [ 85300.210999999995693, 445199.268999999971129 ], [ 85299.187000000005355, 445202.087999999988824 ], [ 85302.226999999998952, 445203.191999999980908 ], [ 85299.478000000002794, 445210.73599999997532 ] ] ] } },
{ "type": "Feature", "properties": { "identificatie": "0503100000017908" }, "geometry": { "type": "Polygon", "coordinates": [ [ [ 85298.929000000003725, 445179.898999999975786 ], [ 85302.277000000001863, 445170.458999999973457 ], [ 85325.823999999993248, 445178.870999999984633 ], [ 85322.493000000002212, 445188.278999999980442 ], [ 85298.929000000003725, 445179.898999999975786 ] ] ] } },
{ "type": "Feature", "properties": { "identificatie": "0503100000017907" }, "geometry": { "type": "Polygon", "coordinates": [ [ [ 85266.36699999999837, 445210.148999999975786 ], [ 85270.524000000004889, 445198.798 ], [ 85284.702000000004773, 445204.007999999972526 ], [ 85280.520000000004075, 445215.309 ], [ 85266.36699999999837, 445210.148999999975786 ] ] ] } },
{ "type": "Feature", "properties": { "identificatie": "0503100000020072" }, "geometry": { "type": "Polygon", "coordinates": [ [ [ 85293.850999999995111, 445329.273999999975786 ], [ 85297.956999999994878, 445319.293 ], [ 85307.206000000005588, 445323.102000000013504 ], [ 85297.631999999997788, 445346.332 ], [ 85297.239000000001397, 445346.169999999983702 ], [ 85296.591, 445345.903 ], [ 85270.631999999997788, 445335.327 ], [ 85271.436000000001513, 445333.34499999997206 ], [ 85276.725999999995111, 445320.294 ], [ 85268.051000000006752, 445316.778 ], [ 85261.963000000003376, 445331.794999999983702 ], [ 85255.709000000002561, 445329.286000000021886 ], [ 85262.80899999999383, 445311.74 ], [ 85266.437999999994645, 445313.181999999971595 ], [ 85269.065000000002328, 445314.226000000024214 ], [ 85269.254, 445313.75099999998929 ], [ 85270.562999999994645, 445314.271 ], [ 85273.823999999993248, 445315.568000000028405 ], [ 85275.535999999992782, 445316.244 ], [ 85291.070999999996275, 445322.229 ], [ 85291.165999999997439, 445321.987000000022817 ], [ 85291.472999999998137, 445322.107000000018161 ], [ 85291.263999999995576, 445322.645000000018626 ], [ 85290.577999999994063, 445322.36099999997532 ], [ 85288.638000000006286, 445327.050999999977648 ], [ 85293.850999999995111, 445329.273999999975786 ] ] ] } },
{ "type": "Feature", "properties": { "identificatie": "0503100000000286" }, "geometry": { "type": "Polygon", "coordinates": [ [ [ 85296.424, 445157.186999999976251 ], [ 85303.913, 445138.577 ], [ 85322.481, 445146.049 ], [ 85314.99199999999837, 445164.658 ], [ 85296.424, 445157.186999999976251 ] ] ] } },
{ "type": "Feature", "properties": { "identificatie": "0503100000018025" }, "geometry": { "type": "Polygon", "coordinates": [ [ [ 85271.436000000001513, 445333.34499999997206 ], [ 85270.631999999997788, 445335.327 ], [ 85261.963000000003376, 445331.794999999983702 ], [ 85268.051000000006752, 445316.778 ], [ 85276.725999999995111, 445320.294 ], [ 85271.436000000001513, 445333.34499999997206 ] ] ] } },
{ "type": "Feature", "properties": { "identificatie": "0503100000015949" }, "geometry": { "type": "Polygon", "coordinates": [ [ [ 85455.928, 445198.271 ], [ 85458.474000000001979, 445192.075000000011642 ], [ 85466.381999999997788, 445195.324000000022352 ], [ 85463.835999999995693, 445201.520000000018626 ], [ 85455.928, 445198.271 ] ] ] } },
{ "type": "Feature", "properties": { "identificatie": "0503100000005002" }, "geometry": { "type": "Polygon", "coordinates": [ [ [ 85226.05800000000454, 445311.994 ], [ 85230.06699999999546, 445300.684 ], [ 85257.351999999998952, 445310.457999999984168 ], [ 85253.361000000004424, 445321.672000000020489 ], [ 85253.327999999994063, 445321.76400000002468 ], [ 85250.481, 445320.744 ], [ 85248.30800000000454, 445326.148999999975786 ], [ 85224.69100000000617, 445316.423 ], [ 85226.263999999995576, 445312.068000000028405 ], [ 85226.05800000000454, 445311.994 ] ] ] } },
{ "type": "Feature", "properties": { "identificatie": "0503100000000006" }, "geometry": { "type": "Polygon", "coordinates": [ [ [ 85403.554000000003725, 445085.989 ], [ 85407.623999999996158, 445087.169999999983702 ], [ 85413.244999999995343, 445088.802000000025146 ], [ 85407.153000000005704, 445109.791000000026543 ], [ 85352.054999999993015, 445093.87699999997858 ], [ 85334.684999999997672, 445088.85999999998603 ], [ 85334.960999999995693, 445087.901000000012573 ], [ 85341.229000000006636, 445066.168 ], [ 85343.648000000001048, 445066.871999999973923 ], [ 85346.240999999994528, 445057.836000000010245 ], [ 85406.668000000005122, 445075.261999999987893 ], [ 85405.296000000002095, 445079.987000000022817 ], [ 85405.282000000006519, 445080.034999999974389 ], [ 85405.157000000006519, 445080.467 ], [ 85403.554000000003725, 445085.989 ] ] ] } },
{ "type": "Feature", "properties": { "identificatie": "0503100000015950" }, "geometry": { "type": "Polygon", "coordinates": [ [ [ 85517.709000000002561, 445167.017999999981839 ], [ 85522.062000000005355, 445156.659999999974389 ], [ 85522.778999999994994, 445154.954000000027008 ], [ 85528.653999999994994, 445157.509000000020023 ], [ 85526.910999999992782, 445161.718 ], [ 85526.820000000006985, 445161.936999999976251 ], [ 85525.911999999996624, 445164.131 ], [ 85525.834000000002561, 445164.319000000017695 ], [ 85523.649000000004889, 445169.538 ], [ 85517.709000000002561, 445167.017999999981839 ] ] ] } },
{ "type": "Feature", "properties": { "identificatie": "0503100000004168" }, "geometry": { "type": "Polygon", "coordinates": [ [ [ 85318.342000000004191, 445451.063000000023749 ], [ 85322.414000000004307, 445440.761999999987893 ], [ 85322.903999999994994, 445439.522 ], [ 85323.695000000006985, 445437.522 ], [ 85331.573999999993248, 445440.713999999978114 ], [ 85335.260999999998603, 445442.207999999984168 ], [ 85336.698000000003958, 445442.789999999979045 ], [ 85336.687000000005355, 445442.816999999980908 ], [ 85332.381999999997788, 445453.645000000018626 ], [ 85331.318, 445456.32 ], [ 85318.342000000004191, 445451.063000000023749 ] ] ] } },
{ "type": "Feature", "properties": { "identificatie": "0503100000004428" }, "geometry": { "type": "Polygon", "coordinates": [ [ [ 85526.614000000001397, 445330.511 ], [ 85536.561000000001513, 445304.081 ], [ 85552.032000000006519, 445309.958999999973457 ], [ 85542.085999999995693, 445336.386999999987893 ], [ 85526.614000000001397, 445330.511 ] ] ] } }
]
}
